NORAD_CAT_ID,OBJECT_NAME,OBJECT_TYPE,EPOCH,MEAN_MOTION,ECCENTRICITY,INCLINATION,RA_OF_ASC_NODE,ARG_OF_PERICENTER,MEAN_ANOMALY,BSTAR,MEAN_MOTION_DOT,MEAN_MOTION_DDOT,TLE_LINE0,TLE_LINE1,TLE_LINE2,SEMIMAJOR_AXIS,PERIOD,APOGEE,PERIGEE,DECAYED
55764.0,STARLINK-5499,PAYLOAD,2024-06-11 08:37:17,14.98319609,0.0003031,69.9993,29.0092,271.3655,88.7156,-6.8445e-05,-9.09e-06,0.0,0 STARLINK-5499,1 55764U 23028Z   24163.35922492 -.00000909  00000-0 -68445-4 0  9995,2 55764  69.9993  29.0092 0003031 271.3655  88.7156 14.98319609 71218,6950.225,96.108,574.197,569.983,0.0
55764.0,STARLINK-5499,PAYLOAD,2024-06-12 00:38:37,14.98331964,0.0003142,69.9992,27.3258,270.7104,89.3695,2.7513e-05,2.35e-06,0.0,0 STARLINK-5499,1 55764U 23028Z   24164.02681773  .00000235  00000-0  27513-4 0  9995,2 55764  69.9992  27.3258 0003142 270.7104  89.3695 14.98331964 71311,6950.187,96.107,574.236,569.868,0.0
55764.0,STARLINK-5499,PAYLOAD,2024-06-12 19:52:13,14.98328124,0.0002901,69.9991,25.3055,265.5533,94.5294,0.00036445,4.258e-05,0.0,0 STARLINK-5499,1 55764U 23028Z   24164.82792994  .00004258  00000-0  36445-3 0  9993,2 55764  69.9991  25.3055 0002901 265.5533  94.5294 14.98328124 71433,6950.199,96.107,574.08,570.047,0.0
55764.0,STARLINK-5499,PAYLOAD,2024-06-13 00:40:38,14.98302917,0.0003296,69.9991,24.8006,276.7876,83.2908,0.0010393,0.00012321,0.0,0 STARLINK-5499,1 55764U 23028Z   24165.02821844  .00012321  00000-0  10393-2 0  9996,2 55764  69.9991  24.8006 0003296 276.7876  83.2908 14.98302917 71467,6950.277,96.109,574.432,569.851,0.0
55764.0,STARLINK-5499,PAYLOAD,2024-06-13 15:05:50,14.9833653,0.0003075,69.9996,23.285,268.5752,91.5055,0.00016765,1.908e-05,0.0,0 STARLINK-5499,1 55764U 23028Z   24165.62905299  .00001908  00000-0  16765-3 0  9998,2 55764  69.9996  23.2850 0003075 268.5752  91.5055 14.98336530 71552,6950.173,96.107,574.175,569.901,0.0
55764.0,STARLINK-5499,PAYLOAD,2024-06-13 21:30:22,14.98337448,0.0003152,69.9996,22.6121,268.8189,91.2609,0.00012492,1.398e-05,0.0,0 STARLINK-5499,1 55764U 23028Z   24165.89609250  .00001398  00000-0  12492-3 0  9991,2 55764  69.9996  22.6121 0003152 268.8189  91.2609 14.98337448 71594,6950.17,96.107,574.226,569.844,0.0
55764.0,STARLINK-5499,PAYLOAD,2024-06-14 07:07:10,14.98336528,0.0003151,69.9996,21.6022,269.1093,90.9705,7.9431e-05,8.55e-06,0.0,0 STARLINK-5499,1 55764U 23028Z   24166.29665209  .00000855  00000-0  79431-4 0  9996,2 55764  69.9996  21.6022 0003151 269.1093  90.9705 14.98336528 71658,6950.173,96.107,574.228,569.848,0.0
55764.0,STARLINK-5499,PAYLOAD,2024-06-14 21:32:23,14.98338288,0.0002979,69.9999,20.0881,266.9291,93.1527,-4.9823e-05,-6.88e-06,0.0,0 STARLINK-5499,1 55764U 23028Z   24166.89748953 -.00000688  00000-0 -49823-4 0  9998,2 55764  69.9999  20.0881 0002979 266.9291  93.1527 14.98338288 71741,6950.167,96.106,574.103,569.962,0.0
55764.0,STARLINK-5499,PAYLOAD,2024-06-15 07:09:11,14.98337319,0.0002989,69.9999,19.0781,266.6023,93.4794,-2.9858e-05,-4.49e-06,0.0,0 STARLINK-5499,1 55764U 23028Z   24167.29804732 -.00000449  00000-0 -29858-4 0  9992,2 55764  69.9999  19.0781 0002989 266.6023  93.4794 14.98337319 71809,6950.17,96.107,574.113,569.958,0.0
55764.0,STARLINK-5499,PAYLOAD,2024-06-15 19:58:15,14.9833674,0.0003012,69.9998,17.7311,268.0544,92.027,4.9233e-05,4.95e-06,0.0,0 STARLINK-5499,1 55764U 23028Z   24167.83212368  .00000495  00000-0  49233-4 0  9998,2 55764  69.9998  17.7311 0003012 268.0544  92.0270 14.98336740 71883,6950.172,96.107,574.13,569.944,0.0
55764.0,STARLINK-5499,PAYLOAD,2024-06-16 07:11:11,14.98334623,0.0002994,69.9999,16.5527,269.2633,90.8183,3.85e-05,3.66e-06,0.0,0 STARLINK-5499,1 55764U 23028Z   24168.29944378  .00000366  00000-0  38500-4 0  9994,2 55764  69.9999  16.5527 0002994 269.2633  90.8183 14.98334623 71955,6950.179,96.107,574.124,569.963,0.0
55764.0,STARLINK-5499,PAYLOAD,2024-06-16 21:36:24,14.98329996,0.0003022,69.9997,15.0377,270.0155,90.0658,2.3172e-05,1.83e-06,0.0,0 STARLINK-5499,1 55764U 23028Z   24168.90028695  .00000183  00000-0  23172-4 0  9993,2 55764  69.9997  15.0377 0003022 270.0155  90.0658 14.98329996 72049,6950.193,96.107,574.158,569.958,0.0
55764.0,STARLINK-5499,PAYLOAD,2024-06-17 20:02:17,14.98329389,0.0003057,69.9995,12.6806,270.1646,89.9163,-3.8263e-05,-5.5e-06,0.0,0 STARLINK-5499,1 55764U 23028Z   24169.83492884 -.00000550  00000-0 -38263-4 0  9998,2 55764  69.9995  12.6806 0003057 270.1646  89.9163 14.98329389 72180,6950.195,96.107,574.184,569.935,0.0
55764.0,STARLINK-5499,PAYLOAD,2024-06-17 21:38:25,14.98329493,0.0003054,69.9995,12.5123,270.2157,89.8652,-3.6767e-05,-5.32e-06,0.0,0 STARLINK-5499,1 55764U 23028Z   24169.90168872 -.00000532  00000-0 -36767-4 0  9990,2 55764  69.9995  12.5123 0003054 270.2157  89.8652 14.98329493 72195,6950.194,96.107,574.182,569.937,0.0
55764.0,STARLINK-5499,PAYLOAD,2024-06-18 13:39:46,14.98331632,0.0003044,69.9995,10.8281,269.797,90.284,0.0001009,1.111e-05,0.0,0 STARLINK-5499,1 55764U 23028Z   24170.56928325  .00001111  00000-0  10090-3 0  9993,2 55764  69.9995  10.8281 0003044 269.7970  90.2840 14.98331632 72290,6950.188,96.107,574.168,569.937,0.0
55764.0,STARLINK-5499,PAYLOAD,2024-06-18 20:04:18,14.98334763,0.000304,69.9995,10.1548,269.6914,90.3897,0.00010966,1.216e-05,0.0,0 STARLINK-5499,1 55764U 23028Z   24170.83632089  .00001216  00000-0  10966-3 0  9990,2 55764  69.9995  10.1548 0003040 269.6914  90.3897 14.98334763 72338,6950.178,96.107,574.156,569.93,0.0
55764.0,STARLINK-5499,PAYLOAD,2024-06-18 21:40:26,14.98335398,0.0003028,69.9995,9.9865,269.6011,90.4801,0.00011652,1.298e-05,0.0,0 STARLINK-5499,1 55764U 23028Z   24170.90308019  .00001298  00000-0  11652-3 0  9994,2 55764  69.9995   9.9865 0003028 269.6011  90.4801 14.98335398 72342,6950.176,96.107,574.146,569.937,0.0
55764.0,STARLINK-5499,PAYLOAD,2024-06-19 13:41:47,14.98325916,0.0002977,69.9994,8.3031,269.5693,90.5125,5.524e-05,5.66e-06,0.0,0 STARLINK-5499,1 55764U 23028Z   24171.57068717  .00000566  00000-0  55240-4 0  9995,2 55764  69.9994   8.3031 0002977 269.5693  90.5125 14.98325916 72442,6950.206,96.107,574.14,570.001,0.0
55764.0,STARLINK-5499,PAYLOAD,2024-06-19 20:06:19,14.98325633,0.0003006,69.9995,7.6299,269.6354,90.446,2.4078e-05,1.94e-06,0.0,0 STARLINK-5499,1 55764U 23028Z   24171.83772861  .00000194  00000-0  24078-4 0  9998,2 55764  69.9995   7.6299 0003006 269.6354  90.4460 14.98325633 72481,6950.206,96.107,574.161,569.982,0.0
55764.0,STARLINK-5499,PAYLOAD,2024-06-19 21:42:27,14.98325929,0.0003003,69.9994,7.4615,269.6569,90.4246,2.6209e-05,2.2e-06,0.0,0 STARLINK-5499,1 55764U 23028Z   24171.90448849  .00000220  00000-0  26209-4 0  9990,2 55764  69.9994   7.4615 0003003 269.6569  90.4246 14.98325929 72496,6950.205,96.107,574.158,569.983,0.0
55764.0,STARLINK-5499,PAYLOAD,2024-06-20 13:43:47,14.98335533,0.0002952,69.9996,5.7782,270.0196,90.0625,1.4025e-05,7.4e-07,0.0,0 STARLINK-5499,1 55764U 23028Z   24172.57208288  .00000074  00000-0  14025-4 0  9995,2 55764  69.9996   5.7782 0002952 270.0196  90.0625 14.98335533 72598,6950.176,96.107,574.092,569.989,0.0
55764.0,STARLINK-5499,PAYLOAD,2024-06-20 21:44:28,14.98336566,0.0002926,69.9998,4.9372,268.7389,91.3435,2.1101e-05,1.59e-06,0.0,0 STARLINK-5499,1 55764U 23028Z   24172.90588080  .00000159  00000-0  21101-4 0  9990,2 55764  69.9998   4.9372 0002926 268.7389  91.3435 14.98336566 72641,6950.173,96.107,574.071,570.004,0.0
55764.0,STARLINK-5499,PAYLOAD,2024-06-20 23:20:36,14.98337336,0.0002946,69.9997,4.7684,269.8112,90.2709,2.9304e-05,2.57e-06,0.0,0 STARLINK-5499,1 55764U 23028Z   24172.97263987  .00000257  00000-0  29304-4 0  9995,2 55764  69.9997   4.7684 0002946 269.8112  90.2709 14.98337336 72651,6950.17,96.107,574.083,569.988,0.0
55764.0,STARLINK-5499,PAYLOAD,2024-06-21 12:09:40,14.98328991,0.0002914,69.9999,3.4216,267.2596,92.8229,8.1863e-05,8.84e-06,0.0,0 STARLINK-5499,1 55764U 23028Z   24173.50672265  .00000884  00000-0  81863-4 0  9992,2 55764  69.9999   3.4216 0002914 267.2596  92.8229 14.98328991 72734,6950.196,96.107,574.086,570.036,0.0
55764.0,STARLINK-5499,PAYLOAD,2024-06-21 13:45:48,14.9832947,0.0002912,69.9999,3.2534,266.3387,93.7439,8.4669e-05,9.17e-06,0.0,0 STARLINK-5499,1 55764U 23028Z   24173.57348225  .00000917  00000-0  84669-4 0  9999,2 55764  69.9999   3.2534 0002912 266.3387  93.7439 14.98329470 72748,6950.195,96.107,574.083,570.036,0.0
55764.0,STARLINK-5499,PAYLOAD,2024-06-21 21:46:29,14.98329767,0.0002928,69.9999,2.4118,265.7824,94.3,7.8227e-05,8.41e-06,0.0,0 STARLINK-5499,1 55764U 23028Z   24173.90728227  .00000841  00000-0  78227-4 0  9999,2 55764  69.9999   2.4118 0002928 265.7824  94.3000 14.98329767 72798,6950.194,96.107,574.094,570.024,0.0
55764.0,STARLINK-5499,PAYLOAD,2024-06-22 13:47:49,14.98331666,0.0002844,70.0,0.7284,261.5599,98.5237,4.1364e-06,-4.4e-07,0.0,0 STARLINK-5499,1 55764U 23028Z   24174.57488265 -.00000044  00000-0  41364-5 0  9997,2 55764  70.0000   0.7284 0002844 261.5599  98.5237 14.98331666 72899,6950.188,96.107,574.029,570.076,0.0
55764.0,STARLINK-5499,PAYLOAD,2024-06-22 20:12:22,14.98330062,0.0002898,70.0,0.0551,261.8337,98.2493,-1.9939e-05,-3.31e-06,0.0,0 STARLINK-5499,1 55764U 23028Z   24174.84192392 -.00000331  00000-0 -19939-4 0  9992,2 55764  70.0000   0.0551 0002898 261.8337  98.2493 14.98330062 72936,6950.193,96.107,574.072,570.044,0.0
55764.0,STARLINK-5499,PAYLOAD,2024-06-22 21:48:30,14.98330344,0.0002948,69.9999,359.8865,267.5455,92.5367,-1.8816e-05,-3.17e-06,0.0,0 STARLINK-5499,1 55764U 23028Z   24174.90868401 -.00000317  00000-0 -18816-4 0  9997,2 55764  69.9999 359.8865 0002948 267.5455  92.5367 14.98330344 72944,6950.192,96.107,574.106,570.008,0.0
55764.0,STARLINK-5499,PAYLOAD,2024-06-23 13:49:50,14.98329647,0.0003039,69.9997,358.2031,266.9634,93.1177,1.1264e-05,4.1e-07,0.0,0 STARLINK-5499,1 55764U 23028Z   24175.57628338  .00000041  00000-0  11264-4 0  9996,2 55764  69.9997 358.2031 0003039 266.9634  93.1177 14.98329647 73046,6950.194,96.107,574.171,569.947,0.0
